[{"OBJECT_NAME":"STARLINK-5927","OBJECT_ID":"2023-037W","EPOCH":"2026-03-09T23:17:41.428032","MEAN_MOTION":14.98325789,"ECCENTRICITY":0.00031066,"INCLINATION":69.9983,"RA_OF_ASC_NODE":283.6929,"ARG_OF_PERICENTER":268.5475,"MEAN_ANOMALY":91.5328,"EPHEMERIS_TYPE":0,"CLASSIFICATION_TYPE":"U","NORAD_CAT_ID":55934,"ELEMENT_SET_NO":999,"REV_AT_EPOCH":16402,"BSTAR":0.00012257811,"MEAN_MOTION_DOT":1.37e-5,"MEAN_MOTION_DDOT":0},{"OBJECT_NAME":"RROCI-2","OBJECT_ID":"2024-043J","EPOCH":"2026-03-09T21:40:56.693280","MEAN_MOTION":14.99383357,"ECCENTRICITY":0.00054118,"INCLINATION":97.8279,"RA_OF_ASC_NODE":200.9973,"ARG_OF_PERICENTER":337.3784,"MEAN_ANOMALY":22.7199,"EPHEMERIS_TYPE":0,"CLASSIFICATION_TYPE":"U","NORAD_CAT_ID":59106,"ELEMENT_SET_NO":999,"REV_AT_EPOCH":10988,"BSTAR":0.00035067832,"MEAN_MOTION_DOT":4.232e-5,"MEAN_MOTION_DDOT":0}]
